{"fetched_at":"2026-03-30T06:02:59Z","count":15439,"tles":[{"name":"STARLINK-3507","line1":"1 51753U 22016AR  26087.71642720 -.00000719  00000+0 -27110-4 0  9997","line2":"2 51753  53.2178 223.7174 0001349  94.1018 266.0129 15.08834813226574","category":"Starlink"}]}